IRIDIUM 126             
1 42809U 17039G   24301.79058643  .00000180  00000+0  57086-4 0  9993
2 42809  86.3969 243.2362 0002233  93.3707 266.7744 14.34216884384324
IRIDIUM 124             
1 42810U 17039H   24301.90587311  .00001570  00000+0  46063-3 0  9993
2 42810  86.4553 180.0226 0002427  73.7033 286.4435 14.43286458388966
IRIDIUM 128             
1 42811U 17039J   24301.64178807  .00000178  00000+0  56373-4 0  9990
2 42811  86.3921 274.8363 0002582  89.1981 270.9510 14.34214939384338
IRIDIUM 121             
1 42812U 17039K   24301.60030229  .00000895  00000+0  31261-3 0  9996
2 42812  86.3973 243.3394 0001864  83.1237 277.0171 14.34216882384173
IRIDIUM 122             
1 42957U 17061C   24301.84475232  .00000160  00000+0  49967-4 0  9992
2 42957  86.3919 274.7856 0002381  91.2518 268.8951 14.34216222369165
IRIDIUM 129             
1 42958U 17061D   24301.80035238  .00001307  00000+0  45965-3 0  9994
2 42958  86.3918 274.8646 0002006  93.2243 266.9183 14.34219550369178
